#aV2009  2  3  0  0   .00000000      96 DD+AD WGS84 FIT  NGA
## 1517 172800.00000000   900.00000000 54865  .0000000000000
+   31     2  3  4  5  6  7  8  9 10 11 12 13 14 15 16 17 18
+         19 20 21 22 23 24 25 26 27 28 29 30 31 32  0  0  0
+          0  0  0  0  0  0  0  0  0  0  0  0  0  0  0  0  0
+          0  0  0  0  0  0  0  0  0  0  0  0  0  0  0  0  0
+          0  0  0  0  0  0  0  0  0  0  0  0  0  0  0  0  0
++         0  0  0  0  0  0  0  0  0  0  0  0  0  0  0  0  0
++         0  0  0  0  0  0  0  0  0  0  0  0  0  0  0  0  0
++         0  0  0  0  0  0  0  0  0  0  0  0  0  0  0  0  0
++         0  0  0  0  0  0  0  0  0  0  0  0  0  0  0  0  0
++         0  0  0  0  0  0  0  0  0  0  0  0  0  0  0  0  0
%c cc cc ccc ccc cccc cccc cccc cccc ccccc ccccc ccccc ccccc
%c cc cc ccc ccc cccc cccc cccc cccc ccccc ccccc ccccc ccccc
%f  0.0000000  0.000000000  0.00000000000  0.000000000000000
%f  0.0000000  0.000000000  0.00000000000  0.000000000000000
%i    0    0    0    0      0      0      0      0         0
%i    0    0    0    0      0      0      0      0         0
/*      NGA, ST. LOUIS,MO.                                  
/*   EPHEMERIS COMPUTED FROM  3 DAYS OF DATA                
/* CCCCCCCCCCCCCCCCCCCCCCCCCCCCCCCCCCCCCCCCCCCCCCCCCCCCCCCCC
/* CCCCCCCCCCCCCCCCCCCCCCCCCCCCCCCCCCCCCCCCCCCCCCCCCCCCCCCCC
*  2009  2  3 13 30   .00000000                                                 
P  2 -13658.256586 -22530.286555  -4867.347612    158.775230                    
V  2    362.649784  -6675.681984  30266.211001      -.015251                    
P  3  19661.970555  11176.015650 -14501.309806    347.932101                    
V  3 -17896.001378   2291.662477 -22621.208329       .051805                    
P  4  -4158.750122 -24828.553143   7722.694217   -323.123597                    
V  4   7139.435806   7988.111310  29409.961391      -.138777                    
P  5 -19073.015342   9940.958475  15206.199033   -631.127720                    
V  5   8365.731657 -18261.640729  22126.812139      -.457989                    
P  6  15361.757885  13622.608593 -16677.845565     70.365512                    
V  6 -21721.282594    560.515150 -19303.751980      -.137250                    
P  7  10865.533950 -11865.514645 -21129.840340     22.955815                    
V  7  11058.132111  24421.374022  -8139.355638      -.002553                    
P  8   2251.874361 -22032.147984 -14333.017697   -189.032737                    
V  8   7815.268040  16600.461974 -24862.149808      -.016100                    
P  9 -16979.350322  -6277.439665  18832.183745     38.466909                    
V  9  -9418.992227 -23425.893023 -15665.919796       .021044                    
P 10 -10699.055853 -11047.133867 -21791.029864    -10.533262                    
V 10  17333.518799 -21130.626505   2552.830071      -.005873                    
P 11  19417.762938   2621.564534  17868.976095      8.628878                    
V 11  11298.154008  20474.194714 -14759.687668      -.010810                    
P 12 -19365.498214   5623.861062  17306.570717   -319.623316                    
V 12  11967.370318 -18364.238570  19545.232095       .036179                    
P 13  20872.913810  -6288.974977 -15284.397537    287.299993                    
V 13  18609.928452   4614.487652  23708.690410       .013539                    
P 14  -1087.764082  14650.417128  22250.811560   -159.347390                    
V 14 -27522.554427  -4419.332045   1469.434255       .052913                    
P 15 -25202.918061  -6579.700347  -5292.366395   -251.533259                    
V 15   7026.227710  -2043.426116 -30687.099707      -.053819                    
P 16   4851.321329  16333.997370 -20253.731857     77.355879                    
V 16 -16938.677990  19617.576919  11946.917990      -.027698                    
P 17   3914.193031 -14818.543756  21733.757793     45.962758                    
V 17  27178.130391   4135.717244  -2263.269489       .009979                    
P 18 -16828.971123  20279.430418   -425.829893    -86.881418                    
V 18  -2350.379472  -2929.437966 -31611.985116       .036158                    
P 19  25620.125705   6980.219202  -2589.401044     32.974518                    
V 19  -3811.763682   2006.099867 -31307.833091      -.005645                    
P 20  19877.361258  -8699.737007  15162.127877     91.834239                    
V 20  -9487.474177  17255.202038  22203.241386      -.010818                    
P 21  -8728.679858  15941.607194 -18929.967806     30.820587                    
V 21 -11025.209142 -22324.905773 -14173.093200      -.018242                    
P 22  -9214.945544  22811.013590  10088.869432    205.642566                    
V 22 -10360.769639   7852.574836 -27702.100249      -.006312                    
P 23  25971.451901   -871.230594  -6192.346840    386.348850                    
V 23   7387.830873   3152.907782  30514.811228       .006853                    
P 24 -15600.804044   1521.393869 -21278.415384    162.634833                    
V 24  -8766.571727 -25972.897298   4806.936387       .029791                    
P 25  14098.715411  -5103.500839 -21554.982399    218.045961                    
V 25  13071.218364  25012.523949   2768.763429       .253536                    
P 26 -21794.003826 -11353.341903 -11248.873426     41.708996                    
V 26  13252.940693   1340.065361 -27814.152519       .030723                    
P 27  -7267.146369 -24538.009036  -6319.635832     21.672549                    
V 27   6190.130149   6886.881267 -30691.075416       .030162                    
P 28  10638.298515 -22709.051088   8638.227540    -23.702505                    
V 28   8621.288898  -6517.535149 -29484.518784      -.000051                    
P 29 -21764.648790   6412.432003 -13676.634118    -13.148652                    
V 29 -17022.539110  -4848.286109  24664.396816       .031684                    
P 30 -18568.471702  17153.811381   7645.309552    123.971728                    
V 30   3319.652875 -10148.393323  29534.393551       .024441                    
P 31   6224.145949  25105.593454   5943.324942    -50.192190                    
V 31  -5122.674157  -5745.188431  30866.135936      -.014836                    
P 32  17930.011218    691.798726  19914.394412    298.546092                    
V 32 -15519.848489  18944.134427  13827.040595      -.031255                    
EOF
